NORAD_CAT_ID,OBJECT_NAME,OBJECT_TYPE,EPOCH,MEAN_MOTION,ECCENTRICITY,INCLINATION,RA_OF_ASC_NODE,ARG_OF_PERICENTER,MEAN_ANOMALY,BSTAR,MEAN_MOTION_DOT,MEAN_MOTION_DDOT,TLE_LINE0,TLE_LINE1,TLE_LINE2,SEMIMAJOR_AXIS,PERIOD,APOGEE,PERIGEE,DECAYED
49430.0,STARLINK-3138,PAYLOAD,2024-07-16 07:13:18,15.08830131,0.0001158,53.2173,49.1389,88.555,271.5575,0.0001934,2.791e-05,0.0,0 STARLINK-3138,1 49430U 21104Y   24198.30090941  .00002791  00000-0  19340-3 0  9997,2 49430  53.2173  49.1389 0001158  88.5550 271.5575 15.08830131147849,6917.911,95.438,540.577,538.974,0.0
49430.0,STARLINK-3138,PAYLOAD,2024-07-16 21:31:46,15.08847063,0.0001127,53.216,46.4614,79.4373,280.6746,0.00026976,4.009e-05,0.0,0 STARLINK-3138,1 49430U 21104Y   24198.89706342  .00004009  00000-0  26976-3 0  9997,2 49430  53.2160  46.4614 0001127  79.4373 280.6746 15.08847063147937,6917.859,95.437,540.503,538.944,0.0
49430.0,STARLINK-3138,PAYLOAD,2024-07-17 07:04:05,15.08835539,0.0001462,53.2173,44.6827,74.5126,285.6027,0.00013516,1.864e-05,0.0,0 STARLINK-3138,1 49430U 21104Y   24199.29451260  .00001864  00000-0  13516-3 0  9990,2 49430  53.2173  44.6827 0001462  74.5126 285.6027 15.08835539149070,6917.894,95.438,540.77,538.748,0.0
49430.0,STARLINK-3138,PAYLOAD,2024-07-17 19:47:11,15.0883443,0.0001269,53.218,42.2941,83.0764,277.0373,-3.5316e-05,-8.5e-06,0.0,0 STARLINK-3138,1 49430U 21104Y   24199.82443496 -.00000850  00000-0 -35316-4 0  9990,2 49430  53.2180  42.2941 0001269  83.0764 277.0373 15.08834430148074,6917.897,95.438,540.64,538.885,0.0
49430.0,STARLINK-3138,PAYLOAD,2024-07-18 06:54:53,15.08836475,0.0001115,53.218,40.2131,99.3572,260.7546,4.5063e-05,4.29e-06,0.0,0 STARLINK-3138,1 49430U 21104Y   24200.28811448  .00000429  00000-0  45063-4 0  9999,2 49430  53.2180  40.2131 0001115  99.3572 260.7546 15.08836475148140,6917.891,95.438,540.528,538.985,0.0
49430.0,STARLINK-3138,PAYLOAD,2024-07-18 19:37:57,15.08847138,0.0001174,53.218,37.8364,86.7093,273.4034,7.1518e-05,8.51e-06,0.0,0 STARLINK-3138,1 49430U 21104Y   24200.81803152  .00000851  00000-0  71518-4 0  9994,2 49430  53.2180  37.8364 0001174  86.7093 273.4034 15.08847138149303,6917.859,95.437,540.536,538.911,0.0
49430.0,STARLINK-3138,PAYLOAD,2024-07-19 06:45:40,15.08846918,0.0001465,53.2171,35.7596,67.8004,292.3143,0.00028564,4.262e-05,0.0,0 STARLINK-3138,1 49430U 21104Y   24201.28171382  .00004262  00000-0  28564-3 0  9991,2 49430  53.2171  35.7596 0001465  67.8004 292.3143 15.08846918148295,6917.859,95.437,540.738,538.711,0.0
49430.0,STARLINK-3138,PAYLOAD,2024-07-19 19:28:45,15.08842202,0.0001098,53.2176,33.3781,90.8517,269.2601,0.00025718,3.808e-05,0.0,0 STARLINK-3138,1 49430U 21104Y   24201.81163489  .00003808  00000-0  25718-3 0  9992,2 49430  53.2176  33.3781 0001098  90.8517 269.2601 15.08842202149450,6917.874,95.437,540.498,538.979,0.0
49430.0,STARLINK-3138,PAYLOAD,2024-07-20 19:19:32,15.08845097,9.68e-05,53.2172,28.9176,96.2765,263.8337,0.00010873,1.443e-05,0.0,0 STARLINK-3138,1 49430U 21104Y   24202.80523335  .00001443  00000-0  10873-3 0  9991,2 49430  53.2172  28.9176 0000968  96.2765 263.8337 15.08845097148522,6917.865,95.437,540.399,539.06,0.0
49430.0,STARLINK-3138,PAYLOAD,2024-07-21 04:51:50,15.08844956,0.0001005,53.2179,27.134,97.6029,262.5077,9.0895e-05,1.159e-05,0.0,0 STARLINK-3138,1 49430U 21104Y   24203.20267244  .00001159  00000-0  90895-4 0  9997,2 49430  53.2179  27.1340 0001005  97.6029 262.5077 15.08844956149660,6917.865,95.437,540.425,539.035,0.0
49430.0,STARLINK-3138,PAYLOAD,2024-07-21 19:10:19,15.08843759,0.000117,53.2181,24.4632,110.1017,250.0102,2.3445e-05,8.5e-07,0.0,0 STARLINK-3138,1 49430U 21104Y   24203.79883260  .00000085  00000-0  23445-4 0  9997,2 49430  53.2181  24.4632 0001170 110.1017 250.0102 15.08843759148679,6917.869,95.437,540.543,538.925,0.0
49430.0,STARLINK-3138,PAYLOAD,2024-07-22 11:04:10,15.08841168,0.000119,53.2181,21.4876,111.9068,248.205,6.858e-05,8.04e-06,0.0,0 STARLINK-3138,1 49430U 21104Y   24204.46123485  .00000804  00000-0  68580-4 0  9996,2 49430  53.2181  21.4876 0001190 111.9068 248.2050 15.08841168149857,6917.877,95.437,540.565,538.919,0.0
49430.0,STARLINK-3138,PAYLOAD,2024-07-23 04:33:25,15.08841466,0.000107,53.218,18.2158,93.8328,266.2786,4.2795e-05,3.93e-06,0.0,0 STARLINK-3138,1 49430U 21104Y   24205.18987581  .00000393  00000-0  42795-4 0  9994,2 49430  53.2180  18.2158 0001070  93.8328 266.2786 15.08841466148886,6917.876,95.437,540.481,539.001,0.0
49430.0,STARLINK-3138,PAYLOAD,2024-07-23 20:27:17,15.08831548,0.0001271,53.2189,15.2421,90.9379,269.1759,0.00038985,5.921e-05,0.0,0 STARLINK-3138,1 49430U 21104Y   24205.85228260  .00005921  00000-0  38985-3 0  9997,2 49430  53.2189  15.2421 0001271  90.9379 269.1759 15.08831548150067,6917.906,95.438,540.65,538.892,0.0
49430.0,STARLINK-3138,PAYLOAD,2024-07-24 10:45:45,15.08836286,0.0001191,53.219,12.5657,89.841,270.2718,2.1906e-06,-2.53e-06,0.0,0 STARLINK-3138,1 49430U 21104Y   24206.44844351 -.00000253  00000-0  21906-5 0  9999,2 49430  53.2190  12.5657 0001191  89.8410 270.2718 15.08836286149075,6917.892,95.438,540.581,538.933,0.0
49430.0,STARLINK-3138,PAYLOAD,2024-07-25 10:36:32,15.08843594,0.0001128,53.219,8.106,90.4935,269.6186,6.6367e-05,7.69e-06,0.0,0 STARLINK-3138,1 49430U 21104Y   24207.44203833  .00000769  00000-0  66367-4 0  9994,2 49430  53.2190   8.1060 0001128  90.4935 269.6186 15.08843594150303,6917.869,95.437,540.515,538.954,0.0
49430.0,STARLINK-3138,PAYLOAD,2024-07-26 04:05:46,15.08841922,0.0001628,53.2125,4.8298,109.8892,250.2276,0.0001151,1.544e-05,0.0,0 STARLINK-3138,1 49430U 21104Y   24208.17067789  .00001544  00000-0  11510-3 0  9994,2 49430  53.2125   4.8298 0001628 109.8892 250.2276 15.08841922149339,6917.875,95.437,540.866,538.613,0.0
49430.0,STARLINK-3138,PAYLOAD,2024-07-26 18:24:14,15.08849441,0.000116,53.2161,2.1563,95.0373,265.0751,0.00014203,1.974e-05,0.0,0 STARLINK-3138,1 49430U 21104Y   24208.76683071  .00001974  00000-0  14203-3 0  9996,2 49430  53.2161   2.1563 0001160  95.0373 265.0751 15.08849441150503,6917.852,95.437,540.519,538.914,0.0
49430.0,STARLINK-3138,PAYLOAD,2024-07-27 10:18:06,15.08835367,0.0001179,53.2154,359.1823,83.6028,276.5099,-9.7024e-05,-1.831e-05,0.0,0 STARLINK-3138,1 49430U 21104Y   24209.42924669 -.00001831  00000-0 -97024-4 0  9998,2 49430  53.2154 359.1823 0001179  83.6028 276.5099 15.08835367150604,6917.895,95.438,540.575,538.944,0.0
49430.0,STARLINK-3138,PAYLOAD,2024-07-27 19:50:25,15.08837065,0.0001229,53.2155,357.3984,85.2815,274.8318,-6.4389e-05,-1.312e-05,0.0,0 STARLINK-3138,1 49430U 21104Y   24209.82668498 -.00001312  00000-0 -64389-4 0  9999,2 49430  53.2155 357.3984 0001229  85.2815 274.8318 15.08837065149588,6917.889,95.438,540.605,538.904,0.0
49430.0,STARLINK-3138,PAYLOAD,2024-07-28 13:19:39,15.08847617,0.0001522,53.2166,354.1275,91.7002,268.4165,-2.5843e-05,-6.99e-06,0.0,0 STARLINK-3138,1 49430U 21104Y   24210.55531804 -.00000699  00000-0 -25843-4 0  9990,2 49430  53.2166 354.1275 0001522  91.7002 268.4165 15.08847617150770,6917.857,95.437,540.775,538.669,0.0
49430.0,STARLINK-3138,PAYLOAD,2024-07-28 21:16:34,15.08854977,0.0001436,53.219,352.6372,108.0478,252.0671,9.2337e-05,1.182e-05,0.0,0 STARLINK-3138,1 49430U 21104Y   24210.88650833  .00001182  00000-0  92337-4 0  9998,2 49430  53.2190 352.6372 0001436 108.0478 252.0671 15.08854977149744,6917.835,95.437,540.693,538.706,0.0
49430.0,STARLINK-3138,PAYLOAD,2024-07-29 02:02:45,15.0882506,0.0001708,53.2191,351.747,84.0008,276.1179,1.9202e-05,1.7e-07,0.0,0 STARLINK-3138,1 49430U 21104Y   24211.08525216  .00000017  00000-0  19202-4 0  9993,2 49430  53.2191 351.7470 0001708  84.0008 276.1179 15.08825060150853,6917.926,95.438,540.973,538.609,0.0
49430.0,STARLINK-3138,PAYLOAD,2024-07-29 09:59:41,15.08826661,7.99e-05,53.2185,350.2621,97.6534,262.4549,2.1997e-05,6.2e-07,0.0,0 STARLINK-3138,1 49430U 21104Y   24211.41645088  .00000062  00000-0  21997-4 0  9994,2 49430  53.2185 350.2621 0000799  97.6534 262.4549 15.08826661149823,6917.921,95.438,540.339,539.233,0.0
49430.0,STARLINK-3138,PAYLOAD,2024-07-29 16:21:12,15.08843733,0.0001475,53.2181,349.0687,89.1001,271.016,0.00015808,2.229e-05,0.0,0 STARLINK-3138,1 49430U 21104Y   24211.68139778  .00002229  00000-0  15808-3 0  9997,2 49430  53.2181 349.0687 0001475  89.1001 271.0160 15.08843733150943,6917.869,95.437,540.754,538.714,0.0
49430.0,STARLINK-3138,PAYLOAD,2024-07-29 21:07:22,15.08843755,0.0001499,53.218,348.1794,85.0585,275.0579,0.00014572,2.032e-05,0.0,0 STARLINK-3138,1 49430U 21104Y   24211.88011865  .00002032  00000-0  14572-3 0  9994,2 49430  53.2180 348.1794 0001499  85.0585 275.0579 15.08843755149893,6917.869,95.437,540.771,538.697,0.0
49430.0,STARLINK-3138,PAYLOAD,2024-07-30 01:53:31,15.08841069,0.0001603,53.2174,347.2863,81.8238,278.2936,0.00010082,1.317e-05,0.0,0 STARLINK-3138,1 49430U 21104Y   24212.07884254  .00001317  00000-0  10082-3 0  9993,2 49430  53.2174 347.2863 0001603  81.8238 278.2936 15.08841069151003,6917.877,95.437,540.851,538.633,0.0
49430.0,STARLINK-3138,PAYLOAD,2024-07-30 16:12:00,15.08842303,0.0001581,53.2186,344.6092,76.0744,284.0424,4.0397e-06,-2.24e-06,0.0,0 STARLINK-3138,1 49430U 21104Y   24212.67500477 -.00000224  00000-0  40397-5 0  9992,2 49430  53.2186 344.6092 0001581  76.0744 284.0424 15.08842303150013,6917.873,95.437,540.832,538.645,0.0
49430.0,STARLINK-3138,PAYLOAD,2024-07-31 12:52:02,15.08838078,0.0002295,53.217,340.7457,86.407,273.7184,-0.00016079,-2.846e-05,0.0,0 STARLINK-3138,1 49430U 21104Y   24213.53613565 -.00002846  00000-0 -16079-3 0  9992,2 49430  53.2170 340.7457 0002295  86.4070 273.7184 15.08838078151224,6917.886,95.438,541.339,538.164,0.0
49430.0,STARLINK-3138,PAYLOAD,2024-07-31 14:27:25,15.08835238,0.0001913,53.2196,340.4494,93.2689,266.8522,-3.7278e-05,-8.81e-06,0.0,0 STARLINK-3138,1 49430U 21104Y   24213.60237426 -.00000881  00000-0 -37278-4 0  9990,2 49430  53.2196 340.4494 0001913  93.2689 266.8522 15.08835238150153,6917.895,95.438,541.083,538.437,0.0
